PROBA-1                 
1 26958U 01049B   26199.86316458  .00000512  00000+0  37102-4 0  9996
2 26958  97.9601 209.5045 0055343  17.5610 342.7514 15.07621361348394
CUTE-1 (CO-55)          
1 27844U 03031E   26199.29733931  .00000128  00000+0  74435-4 0  9993
2 27844  98.6744 207.4657 0010867  94.6885 265.5536 14.24352673196104
CUBESAT XI-IV (CO-57)   
1 27848U 03031J   26198.95002441  .00000107  00000+0  66203-4 0  9995
2 27848  98.6776 206.8106 0010632 112.1739 248.0569 14.23635431195756
APRIZESAT 4             
1 35684U 09041D   26199.74730275  .00000287  00000+0  41061-4 0  9994
2 35684  98.1401 275.6954 0042457 217.7364 142.0870 14.83916474916040
APRIZESAT 3             
1 35686U 09041F   26199.39547456  .00000335  00000+0  34575-4 0  9990
2 35686  98.2106 354.1225 0060719 325.2284  34.4974 14.96315172921043
PROBA-2                 
1 36037U 09059B   26199.73957447  .00000057  00000+0  23798-4 0  9999
2 36037  98.2462  22.6567 0013259 177.7124 182.4136 14.54874419886115
APRIZESAT 5             
1 37792U 11044E   26199.75932334  .00000332  00000+0  49354-4 0  9997
2 37792  98.2447 133.6963 0050683 260.9074  98.6400 14.81130594803469
APRIZESAT 6             
1 37793U 11044F   26199.71773412  .00000318  00000+0  52459-4 0  9998
2 37793  98.2332 110.8582 0042763 346.9673  75.3400 14.76959593801807
PROBA-V                 
1 39159U 13021A   26199.81748765  .00000007  00000+0  21296-4 0  9997
2 39159  98.3608 176.8662 0005121  51.5559 308.6080 14.23603688685610
APRIZESAT 7             
1 39416U 13066A   26199.81757942  .00000691  00000+0  73567-4 0  9996
2 39416  97.7723 152.5866 0037303 105.7785 254.7552 14.91623631685940
APRIZESAT 8             
1 39425U 13066K   26199.82106605  .00000364  00000+0  45351-4 0  9998
2 39425  97.8230 146.8510 0045816 179.9033 180.2201 14.87699337684374
BUGSAT-1 (TITA)         
1 40014U 14033E   26199.85548669  .00002141  00000+0  11464-3 0  9994
2 40014  98.0431 294.2639 0028996  74.0281 286.4141 15.15902533660638
SAUDISAT 4              
1 40016U 14033G   26199.83663992  .00000216  00000+0  35362-4 0  9996
2 40016  97.7623 344.8842 0043963 332.0834  27.8020 14.79577610650757
APRIZESAT 9             
1 40018U 14033J   26199.29354985  .00000291  00000+0  50115-4 0  9993
2 40018  97.9099 331.7382 0067502 100.1927 260.6904 14.74254835648148
APRIZESAT 10            
1 40019U 14033K   26199.82727514  .00000296  00000+0  54342-4 0  9996
2 40019  97.9686 326.0872 0079020 171.7689 188.4835 14.70913447646908
TECHDEMOSAT-1 (TDS-1)   
1 40076U 14037H   26199.23129014  .00003422  00000+0  19436-3 0  9997
2 40076  98.3830 194.5338 0007232 149.4673 210.6978 15.13703160652925
TECHNOSAT               
1 42829U 17042E   26199.69660095  .00001247  00000+0  91546-4 0  9999
2 42829  97.4323 356.1645 0017091 352.0472   8.0481 15.05121620491442
FLYING LAPTOP           
1 42831U 17042G   26199.84580237  .00002162  00000+0  17183-3 0  9999
2 42831  97.4827 354.1910 0019537  20.8806 339.3212 15.01328064491208
HAWK-A                  
1 43765U 18099H   26199.71613017  .00003486  00000+0  14030-3 0  9996
2 43765  97.3892 251.5450 0035084 171.6437 188.5393 15.24990780417909
HAWK-B                  
1 43794U 18099AN  26199.70987625  .00003019  00000+0  12918-3 0  9991
2 43794  97.3943 250.8871 0031733 189.6136 170.4498 15.23137637417830
HAWK-C                  
1 43799U 18099AT  26199.81701940  .00004507  00000+0  16122-3 0  9996
2 43799  97.3867 252.7143 0040681 171.0810 189.1162 15.28524202418748
SALSAT                  
1 46495U 20068K   26199.01462697  .00004061  00000+0  14177-3 0  9999
2 46495  97.8861 203.9671 0009495 182.8082 177.3106 15.30195257320078
HAWK-2C                 
1 47502U 21006CT  26199.83718537  .00003507  00000+0  10546-3 0  9999
2 47502  97.2259 243.5203 0008684  90.6516 269.5723 15.35015243304354
HAWK-2A                 
1 47505U 21006CW  26199.57860905  .00003430  00000+0  10312-3 0  9996
2 47505  97.2300 243.9628 0008241  94.6100 265.6085 15.35034159304312
HAWK-2B                 
1 47508U 21006CZ  26199.83257904  .00004006  00000+0  11954-3 0  9990
2 47508  97.2171 242.4940 0008766  92.3093 267.9155 15.35166052304355
HAWK-3B                 
1 48931U 21059BE  26199.09212460  .00031299  00000+0  23996-3 0  9998
2 48931  97.6632  38.7819 0004731 187.5925 172.5267 15.72043913282702
HAWK-3C                 
1 48948U 21059BX  26199.09180544  .00029344  00000+0  22507-3 0  9998
2 48948  97.6749  44.5200 0005037 187.8290 172.2895 15.72043790282703
HAWK-3A                 
1 48957U 21059CG  26199.85552919  .00031385  00000+0  24015-3 0  9995
2 48957  97.6697  42.5394 0004982 187.6639 172.4548 15.72088161282821
HAWK-5C                 
1 52754U 22057Y   26199.83170368  .00010355  00000+0  17136-3 0  9996
2 52754  97.6627   1.5702 0002476 329.0147  31.0959 15.52404760231256
HAWK-5B                 
1 52756U 22057AA  26199.12248197  .00010427  00000+0  17265-3 0  9999
2 52756  97.6638 359.1680 0003199 318.5187  41.5822 15.52385437231149
